{
  "type": "FeatureCollection",
  "features": [
    {
      "type": "Feature",
      "properties": {
        "norad_id": 37132,
        "name": "COSMOS 2251 DEB",
        "group": "cosmos-2251-debris",
        "lat": -46.40566017972471,
        "lon": 91.56433868054236,
        "alt_km": 670.995417001056,
        "timestamp": "2025-12-02T13:52:17.658897+00:00",
        "meta_object_name": "COSMOS 2251 DEB",
        "meta_object_id": "1993-036BHE",
        "meta_epoch": "2025-11-29T01:57:55.161216",
        "meta_mean_motion": 14.77491911,
        "meta_eccentricity": 0.00393056,
        "meta_inclination": 74.0019,
        "meta_ra_of_asc_node": 260.8973,
        "meta_arg_of_pericenter": 60.0895,
        "meta_mean_anomaly": 300.4174,
        "meta_ephemeris_type": 0,
        "meta_classification_type": "U",
        "meta_norad_cat_id": 37132,
        "meta_element_set_no": 999,
        "meta_rev_at_epoch": 62214,
        "meta_bstar": 0.0012599445,
        "meta_mean_motion_dot": 9.078e-05,
        "meta_mean_motion_ddot": 0,
        "tle_line1": "1 37132U 93036BHE 25333.08188844  .00009078  00000+0  12599-2 0  9995",
        "tle_line2": "2 37132  74.0019 260.8973 0039305  60.0895 300.4174 14.77491911622140"
      },
      "geometry": {
        "type": "Point",
        "coordinates": [
          91.56433868054236,
          -46.40566017972471
        ]
      }
    },
    {
      "type": "Feature",
      "properties": {
        "norad_id": 37270,
        "name": "COSMOS 2251 DEB",
        "group": "cosmos-2251-debris",
        "lat": 16.9417194935229,
        "lon": -2.4955323294723195,
        "alt_km": 747.5926840057527,
        "timestamp": "2025-12-02T13:52:17.658907+00:00",
        "meta_object_name": "COSMOS 2251 DEB",
        "meta_object_id": "1993-036BHJ",
        "meta_epoch": "2025-12-01T02:28:33.040416",
        "meta_mean_motion": 13.59625006,
        "meta_eccentricity": 0.0397803,
        "meta_inclination": 73.9339,
        "meta_ra_of_asc_node": 354.8735,
        "meta_arg_of_pericenter": 8.9198,
        "meta_mean_anomaly": 351.871,
        "meta_ephemeris_type": 0,
        "meta_classification_type": "U",
        "meta_norad_cat_id": 37270,
        "meta_element_set_no": 999,
        "meta_rev_at_epoch": 76911,
        "meta_bstar": 0.0032507777,
        "meta_mean_motion_dot": 4.044e-05,
        "meta_mean_motion_ddot": 0,
        "tle_line1": "1 37270U 93036BHJ 25335.10316019  .00004044  00000+0  32508-2 0  9990",
        "tle_line2": "2 37270  73.9339 354.8735 0397803   8.9198 351.8710 13.59625006769111"
      },
      "geometry": {
        "type": "Point",
        "coordinates": [
          -2.4955323294723195,
          16.9417194935229
        ]
      }
    },
    {
      "type": "Feature",
      "properties": {
        "norad_id": 37278,
        "name": "COSMOS 2251 DEB",
        "group": "cosmos-2251-debris",
        "lat": 2.5283734485807083,
        "lon": -173.10189774725765,
        "alt_km": 634.2394888176241,
        "timestamp": "2025-12-02T13:52:17.658918+00:00",
        "meta_object_name": "COSMOS 2251 DEB",
        "meta_object_id": "1993-036BHS",
        "meta_epoch": "2025-12-01T18:57:57.153312",
        "meta_mean_motion": 14.1499711,
        "meta_eccentricity": 0.03003074,
        "meta_inclination": 73.7866,
        "meta_ra_of_asc_node": 9.0548,
        "meta_arg_of_pericenter": 193.3578,
        "meta_mean_anomaly": 293.5627,
        "meta_ephemeris_type": 0,
        "meta_classification_type": "U",
        "meta_norad_cat_id": 37278,
        "meta_element_set_no": 999,
        "meta_rev_at_epoch": 63674,
        "meta_bstar": 0.0011131587,
        "meta_mean_motion_dot": 3.306e-05,
        "meta_mean_motion_ddot": 0,
        "tle_line1": "1 37278U 93036BHS 25335.79024483  .00003306  00000+0  11132-2 0  9994",
        "tle_line2": "2 37278  73.7866   9.0548 0300307 193.3578 293.5627 14.14997110636748"
      },
      "geometry": {
        "type": "Point",
        "coordinates": [
          -173.10189774725765,
          2.5283734485807083
        ]
      }
    },
    {
      "type": "Feature",
      "properties": {
        "norad_id": 37280,
        "name": "COSMOS 2251 DEB",
        "group": "cosmos-2251-debris",
        "lat": -24.379843627960295,
        "lon": 67.7762530221177,
        "alt_km": 892.1447177541395,
        "timestamp": "2025-12-02T13:52:17.658928+00:00",
        "meta_object_name": "COSMOS 2251 DEB",
        "meta_object_id": "1993-036BHU",
        "meta_epoch": "2025-12-02T00:27:32.804352",
        "meta_mean_motion": 14.19175148,
        "meta_eccentricity": 0.01319076,
        "meta_inclination": 74.0306,
        "meta_ra_of_asc_node": 76.2311,
        "meta_arg_of_pericenter": 206.963,
        "meta_mean_anomaly": 152.4621,
        "meta_ephemeris_type": 0,
        "meta_classification_type": "U",
        "meta_norad_cat_id": 37280,
        "meta_element_set_no": 999,
        "meta_rev_at_epoch": 57171,
        "meta_bstar": 0.0022688373,
        "meta_mean_motion_dot": 5.159e-05,
        "meta_mean_motion_ddot": 0,
        "tle_line1": "1 37280U 93036BHU 25336.01912968  .00005159  00000+0  22688-2 0  9993",
        "tle_line2": "2 37280  74.0306  76.2311 0131907 206.9630 152.4621 14.19175148571712"
      },
      "geometry": {
        "type": "Point",
        "coordinates": [
          67.7762530221177,
          -24.379843627960295
        ]
      }
    },
    {
      "type": "Feature",
      "properties": {
        "norad_id": 37284,
        "name": "COSMOS 2251 DEB",
        "group": "cosmos-2251-debris",
        "lat": -30.98842446632956,
        "lon": 4.629908832360461,
        "alt_km": 905.9447959439358,
        "timestamp": "2025-12-02T13:52:17.658938+00:00",
        "meta_object_name": "COSMOS 2251 DEB",
        "meta_object_id": "1993-036BHY",
        "meta_epoch": "2025-12-01T19:55:42.843072",
        "meta_mean_motion": 14.12627021,
        "meta_eccentricity": 0.01605389,
        "meta_inclination": 74.0146,
        "meta_ra_of_asc_node": 176.0394,
        "meta_arg_of_pericenter": 330.0872,
        "meta_mean_anomaly": 43.3273,
        "meta_ephemeris_type": 0,
        "meta_classification_type": "U",
        "meta_norad_cat_id": 37284,
        "meta_element_set_no": 999,
        "meta_rev_at_epoch": 59021,
        "meta_bstar": 0.0011943881,
        "meta_mean_motion_dot": 2.474e-05,
        "meta_mean_motion_ddot": 0,
        "tle_line1": "1 37284U 93036BHY 25335.83035698  .00002474  00000+0  11944-2 0  9992",
        "tle_line2": "2 37284  74.0146 176.0394 0160538 330.0872  43.3273 14.12627021590219"
      },
      "geometry": {
        "type": "Point",
        "coordinates": [
          4.629908832360461,
          -30.98842446632956
        ]
      }
    },
    {
      "type": "Feature",
      "properties": {
        "norad_id": 37295,
        "name": "COSMOS 2251 DEB",
        "group": "cosmos-2251-debris",
        "lat": 46.377265180469784,
        "lon": 103.6997671694486,
        "alt_km": 641.6297655879962,
        "timestamp": "2025-12-02T13:52:17.658948+00:00",
        "meta_object_name": "COSMOS 2251 DEB",
        "meta_object_id": "1993-036BJK",
        "meta_epoch": "2025-12-01T04:30:08.731584",
        "meta_mean_motion": 14.65123594,
        "meta_eccentricity": 0.00437469,
        "meta_inclination": 74.0068,
        "meta_ra_of_asc_node": 303.8923,
        "meta_arg_of_pericenter": 126.7963,
        "meta_mean_anomaly": 233.7233,
        "meta_ephemeris_type": 0,
        "meta_classification_type": "U",
        "meta_norad_cat_id": 37295,
        "meta_element_set_no": 999,
        "meta_rev_at_epoch": 82135,
        "meta_bstar": 0.00057778641,
        "meta_mean_motion_dot": 3.118e-05,
        "meta_mean_motion_ddot": 0,
        "tle_line1": "1 37295U 93036BJK 25335.18760106  .00003118  00000+0  57779-3 0  9994",
        "tle_line2": "2 37295  74.0068 303.8923 0043746 126.7963 233.7233 14.65123594821351"
      },
      "geometry": {
        "type": "Point",
        "coordinates": [
          103.6997671694486,
          46.377265180469784
        ]
      }
    },
    {
      "type": "Feature",
      "properties": {
        "norad_id": 37305,
        "name": "COSMOS 2251 DEB",
        "group": "cosmos-2251-debris",
        "lat": -68.44463980372537,
        "lon": 176.47247755607722,
        "alt_km": 743.6255501546466,
        "timestamp": "2025-12-02T13:52:17.658958+00:00",
        "meta_object_name": "COSMOS 2251 DEB",
        "meta_object_id": "1993-036BJV",
        "meta_epoch": "2025-12-01T04:54:57.845088",
        "meta_mean_motion": 14.36058989,
        "meta_eccentricity": 0.0050534,
        "meta_inclination": 73.8694,
        "meta_ra_of_asc_node": 311.9126,
        "meta_arg_of_pericenter": 273.9871,
        "meta_mean_anomaly": 85.5504,
        "meta_ephemeris_type": 0,
        "meta_classification_type": "U",
        "meta_norad_cat_id": 37305,
        "meta_element_set_no": 999,
        "meta_rev_at_epoch": 66701,
        "meta_bstar": 0.00088749,
        "meta_mean_motion_dot": 2.593e-05,
        "meta_mean_motion_ddot": 0,
        "tle_line1": "1 37305U 93036BJV 25335.20483617  .00002593  00000+0  88749-3 0  9995",
        "tle_line2": "2 37305  73.8694 311.9126 0050534 273.9871  85.5504 14.36058989667014"
      },
      "geometry": {
        "type": "Point",
        "coordinates": [
          176.47247755607722,
          -68.44463980372537
        ]
      }
    }
  ]
}